{"type": "FeatureCollection", "features": [ {"type": "Feature", "properties": {"norad_id": 33825, "name": "COSMOS 2251 DEB", "group": "cosmos-2251-debris", "lat": -13.387464424776857, "lon": 37.34104456989497, "alt_km": 612.0539406721155, "timestamp": "2025-12-05T19:30:25.959583+00:00", "meta": {"OBJECT_NAME": "COSMOS 2251 DEB", "OBJECT_ID": "1993-036BS", "EPOCH": "2025-12-05T06:46:40.505664", "MEAN_MOTION": 14.69663206, "ECCENTRICITY": 0.00841739, "INCLINATION": 73.9861, "RA_OF_ASC_NODE": 42.2911, "ARG_OF_PERICENTER": 11.2207, "MEAN_ANOMALY": 50.3291, "EPHEMERIS_TYPE": 0, "CLASSIFICATION_TYPE": "U", "NORAD_CAT_ID": 33825, "ELEMENT_SET_NO": 999, "REV_AT_EPOCH": 88770, "BSTAR": 0.0015132493, "MEAN_MOTION_DOT": 9.49e-05, "MEAN_MOTION_DDOT": 0}, "tle": {"line1": "1 33825U 93036BS  25339.28241326  .00009490  00000+0  15132-2 0  9997", "line2": "2 33825  73.9861  42.2911 0084173  11.2207  50.3291 14.69663206887705"}}, "geometry": {"type": "Point", "coordinates": [37.34104456989497, -13.387464424776857]}}, {"type": "Feature", "properties": {"norad_id": 33826, "name": "COSMOS 2251 DEB", "group": "cosmos-2251-debris", "lat": -33.12942228187343, "lon": 52.1532792806731, "alt_km": 774.2762070922736, "timestamp": "2025-12-05T19:30:25.959595+00:00", "meta": {"OBJECT_NAME": "COSMOS 2251 DEB", "OBJECT_ID": "1993-036BT", "EPOCH": "2025-12-05T04:53:58.750080", "MEAN_MOTION": 14.51610478, "ECCENTRICITY": 0.00840937, "INCLINATION": 74.066, "RA_OF_ASC_NODE": 64.0422, "ARG_OF_PERICENTER": 110.7845, "MEAN_ANOMALY": 275.8587, "EPHEMERIS_TYPE": 0, "CLASSIFICATION_TYPE": "U", "NORAD_CAT_ID": 33826, "ELEMENT_SET_NO": 999, "REV_AT_EPOCH": 87660, "BSTAR": 0.0028534152, "MEAN_MOTION_DOT": 0.00011964, "MEAN_MOTION_DDOT": 0}, "tle": {"line1": "1 33826U 93036BT  25339.20415220  .00011964  00000+0  28534-2 0  9995", "line2": "2 33826  74.0660  64.0422 0084093 110.7845 275.8587 14.51610478876601"}}, "geometry": {"type": "Point", "coordinates": [52.1532792806731, -33.12942228187343]}}, {"type": "Feature", "properties": {"norad_id": 33828, "name": "COSMOS 2251 DEB", "group": "cosmos-2251-debris", "lat": 43.875350969987906, "lon": -93.06636124386799, "alt_km": 737.0583511357827, "timestamp": "2025-12-05T19:30:25.959607+00:00", "meta": {"OBJECT_NAME": "COSMOS 2251 DEB", "OBJECT_ID": "1993-036BV", "EPOCH": "2025-12-05T04:53:09.007008", "MEAN_MOTION": 14.44292451, "ECCENTRICITY": 0.00293611, "INCLINATION": 74.0475, "RA_OF_ASC_NODE": 252.1027, "ARG_OF_PERICENTER": 326.2114, "MEAN_ANOMALY": 153.3069, "EPHEMERIS_TYPE": 0, "CLASSIFICATION_TYPE": "U", "NORAD_CAT_ID": 33828, "ELEMENT_SET_NO": 999, "REV_AT_EPOCH": 88204, "BSTAR": 0.001058897, "MEAN_MOTION_DOT": 3.635e-05, "MEAN_MOTION_DDOT": 0}, "tle": {"line1": "1 33828U 93036BV  25339.20357647  .00003635  00000+0  10589-2 0  9992", "line2": "2 33828  74.0475 252.1027 0029361 326.2114 153.3069 14.44292451882047"}}, "geometry": {"type": "Point", "coordinates": [-93.06636124386799, 43.875350969987906]}}, {"type": "Feature", "properties": {"norad_id": 33830, "name": "COSMOS 2251 DEB", "group": "cosmos-2251-debris", "lat": -10.406126355292148, "lon": 66.95899659947742, "alt_km": 672.9732232787619, "timestamp": "2025-12-05T19:30:25.959618+00:00", "meta": {"OBJECT_NAME": "COSMOS 2251 DEB", "OBJECT_ID": "1993-036BX", "EPOCH": "2025-12-05T04:43:06.055968", "MEAN_MOTION": 14.76745586, "ECCENTRICITY": 0.00422171, "INCLINATION": 74.0334, "RA_OF_ASC_NODE": 245.1523, "ARG_OF_PERICENTER": 6.8222, "MEAN_ANOMALY": 149.3745, "EPHEMERIS_TYPE": 0, "CLASSIFICATION_TYPE": "U", "NORAD_CAT_ID": 33830, "ELEMENT_SET_NO": 999, "REV_AT_EPOCH": 89360, "BSTAR": 0.0019404157, "MEAN_MOTION_DOT": 0.00013792, "MEAN_MOTION_DDOT": 0}, "tle": {"line1": "1 33830U 93036BX  25339.19659787  .00013792  00000+0  19404-2 0  9993", "line2": "2 33830  74.0334 245.1523 0042217   6.8222 149.3745 14.76745586893600"}}, "geometry": {"type": "Point", "coordinates": [66.95899659947742, -10.406126355292148]}}, {"type": "Feature", "properties": {"norad_id": 33832, "name": "COSMOS 2251 DEB", "group": "cosmos-2251-debris", "lat": -67.5866697646112, "lon": 179.30757008970878, "alt_km": 682.8409480120581, "timestamp": "2025-12-05T19:30:25.959629+00:00", "meta": {"OBJECT_NAME": "COSMOS 2251 DEB", "OBJECT_ID": "1993-036BZ", "EPOCH": "2025-12-05T04:07:18.770592", "MEAN_MOTION": 14.60500945, "ECCENTRICITY": 0.0025495, "INCLINATION": 74.0549, "RA_OF_ASC_NODE": 224.4124, "ARG_OF_PERICENTER": 256.9852, "MEAN_ANOMALY": 259.6773, "EPHEMERIS_TYPE": 0, "CLASSIFICATION_TYPE": "U", "NORAD_CAT_ID": 33832, "ELEMENT_SET_NO": 999, "REV_AT_EPOCH": 88314, "BSTAR": 0.0029436818, "MEAN_MOTION_DOT": 0.00014348, "MEAN_MOTION_DDOT": 0}, "tle": {"line1": "1 33832U 93036BZ  25339.17174503  .00014348  00000+0  29437-2 0  9996", "line2": "2 33832  74.0549 224.4124 0025495 256.9852 259.6773 14.60500945883148"}}, "geometry": {"type": "Point", "coordinates": [179.30757008970878, -67.5866697646112]}}, {"type": "Feature", "properties": {"norad_id": 33835, "name": "COSMOS 2251 DEB", "group": "cosmos-2251-debris", "lat": 71.43503522490126, "lon": 172.6964752860372, "alt_km": 678.4398376711488, "timestamp": "2025-12-05T19:30:25.959640+00:00", "meta": {"OBJECT_NAME": "COSMOS 2251 DEB", "OBJECT_ID": "1993-036CC", "EPOCH": "2025-12-04T10:33:11.383776", "MEAN_MOTION": 14.6210002, "ECCENTRICITY": 0.0055533, "INCLINATION": 74.0563, "RA_OF_ASC_NODE": 116.9819, "ARG_OF_PERICENTER": 172.8257, "MEAN_ANOMALY": 243.7771, "EPHEMERIS_TYPE": 0, "CLASSIFICATION_TYPE": "U", "NORAD_CAT_ID": 33835, "ELEMENT_SET_NO": 999, "REV_AT_EPOCH": 88668, "BSTAR": 0.0027329, "MEAN_MOTION_DOT": 0.00014038, "MEAN_MOTION_DDOT": 0}, "tle": {"line1": "1 33835U 93036CC  25338.43971509  .00014038  00000+0  27329-2 0  9992", "line2": "2 33835  74.0563 116.9819 0055533 172.8257 243.7771 14.62100020886680"}}, "geometry": {"type": "Point", "coordinates": [172.6964752860372, 71.43503522490126]}}, {"type": "Feature", "properties": {"norad_id": 33836, "name": "COSMOS 2251 DEB", "group": "cosmos-2251-debris", "lat": 31.25981801585735, "lon": -77.35093405702159, "alt_km": 630.6429173621418, "timestamp": "2025-12-05T19:30:25.959651+00:00", "meta": {"OBJECT_NAME": "COSMOS 2251 DEB", "OBJECT_ID": "1993-036CD", "EPOCH": "2025-12-05T06:56:57.709248", "MEAN_MOTION": 14.79393797, "ECCENTRICITY": 0.00224399, "INCLINATION": 73.9979, "RA_OF_ASC_NODE": 273.648, "ARG_OF_PERICENTER": 129.6449, "MEAN_ANOMALY": 357.8233, "EPHEMERIS_TYPE": 0, "CLASSIFICATION_TYPE": "U", "NORAD_CAT_ID": 33836, "ELEMENT_SET_NO": 999, "REV_AT_EPOCH": 63978, "BSTAR": 0.0024760989, "MEAN_MOTION_DOT": 0.00018562, "MEAN_MOTION_DDOT": 0}, "tle": {"line1": "1 33836U 93036CD  25339.28955682  .00018562  00000+0  24761-2 0  9994", "line2": "2 33836  73.9979 273.6480 0022439 129.6449 357.8233 14.79393797639787"}}, "geometry": {"type": "Point", "coordinates": [-77.35093405702159, 31.25981801585735]}}, {"type": "Feature", "properties": {"norad_id": 33837, "name": "COSMOS 2251 DEB", "group": "cosmos-2251-debris", "lat": 10.010671771503844, "lon": 71.53984546685948, "alt_km": 719.7798723814658, "timestamp": "2025-12-05T19:30:25.959662+00:00", "meta": {"OBJECT_NAME": "COSMOS 2251 DEB", "OBJECT_ID": "1993-036CE", "EPOCH": "2025-12-05T06:13:07.872960", "MEAN_MOTION": 14.50675868, "ECCENTRICITY": 0.00357048, "INCLINATION": 74.013, "RA_OF_ASC_NODE": 69.681, "ARG_OF_PERICENTER": 292.6198, "MEAN_ANOMALY": 67.1187, "EPHEMERIS_TYPE": 0, "CLASSIFICATION_TYPE": "U", "NORAD_CAT_ID": 33837, "ELEMENT_SET_NO": 999, "REV_AT_EPOCH": 88687, "BSTAR": 0.0005169218, "MEAN_MOTION_DOT": 2.019e-05, "MEAN_MOTION_DDOT": 0}, "tle": {"line1": "1 33837U 93036CE  25339.25911890  .00002019  00000+0  51692-3 0  9999", "line2": "2 33837  74.0130  69.6810 0035704 292.6198  67.1187 14.50675868886874"}}, "geometry": {"type": "Point", "coordinates": [71.53984546685948, 10.010671771503844]}}, {"type": "Feature", "properties": {"norad_id": 33838, "name": "COSMOS 2251 DEB", "group": "cosmos-2251-debris", "lat": -55.45468326433538, "lon": 138.21584527946865, "alt_km": 719.0155698044173, "timestamp": "2025-12-05T19:30:25.959672+00:00", "meta": {"OBJECT_NAME": "COSMOS 2251 DEB", "OBJECT_ID": "1993-036CF", "EPOCH": "2025-12-05T07:19:35.907744", "MEAN_MOTION": 14.48328328, "ECCENTRICITY": 0.0027411, "INCLINATION": 74.0358, "RA_OF_ASC_NODE": 163.7357, "ARG_OF_PERICENTER": 286.6428, "MEAN_ANOMALY": 249.2375, "EPHEMERIS_TYPE": 0, "CLASSIFICATION_TYPE": "U", "NORAD_CAT_ID": 33838, "ELEMENT_SET_NO": 999, "REV_AT_EPOCH": 88461, "BSTAR": 0.00075258986, "MEAN_MOTION_DOT": 2.801e-05, "MEAN_MOTION_DDOT": 0}, "tle": {"line1": "1 33838U 93036CF  25339.30527671  .00002801  00000+0  75259-3 0  9990", "line2": "2 33838  74.0358 163.7357 0027411 286.6428 249.2375 14.48328328884619"}}, "geometry": {"type": "Point", "coordinates": [138.21584527946865, -55.45468326433538]}}, {"type": "Feature", "properties": {"norad_id": 33839, "name": "COSMOS 2251 DEB", "group": "cosmos-2251-debris", "lat": -6.735319871822884, "lon": 41.72684904123678, "alt_km": 732.3476816120101, "timestamp": "2025-12-05T19:30:25.959683+00:00", "meta": {"OBJECT_NAME": "COSMOS 2251 DEB", "OBJECT_ID": "1993-036CG", "EPOCH": "2025-12-04T16:31:13.558368", "MEAN_MOTION": 14.64384931, "ECCENTRICITY": 0.0084877, "INCLINATION": 74.0394, "RA_OF_ASC_NODE": 221.9496, "ARG_OF_PERICENTER": 335.9087, "MEAN_ANOMALY": 46.0985, "EPHEMERIS_TYPE": 0, "CLASSIFICATION_TYPE": "U", "NORAD_CAT_ID": 33839, "ELEMENT_SET_NO": 999, "REV_AT_EPOCH": 89462, "BSTAR": 0.00058017, "MEAN_MOTION_DOT": 3.2e-05, "MEAN_MOTION_DDOT": 0}, "tle": {"line1": "1 33839U 93036CG  25338.68835137  .00003200  00000+0  58017-3 0  9997", "line2": "2 33839  74.0394 221.9496 0084877 335.9087  46.0985 14.64384931894621"}}, "geometry": {"type": "Point", "coordinates": [41.72684904123678, -6.735319871822884]}}]}